ORBCOMM FM24            
1 25478U 98053D   25316.11800892  .00002010  00000+0  69749-3 0  9997
2 25478  45.0075 287.4906 0004074 275.5111  84.5273 14.38529697418749
ORBCOMM FM25            
1 25479U 98053E   25316.30073205  .00003706  00000+0  12468-2 0  9997
2 25479  45.0063 284.9170 0006431 278.2486  81.7633 14.38507903419067
ORBCOMM FM26            
1 25480U 98053F   25316.27294090  .00002420  00000+0  84729-3 0  9994
2 25480  45.0070 282.6033 0008312 289.0968  70.8979 14.37496611418956
ORBCOMM FM27            
1 25481U 98053G   25316.28507314  .00003253  00000+0  10997-2 0  9992
2 25481  45.0049 285.1371 0002853 291.6835  68.3710 14.38537083418991
ORBCOMM FM28            
1 25482U 98053H   25316.02761286  .00001683  00000+0  58985-3 0  9990
2 25482  45.0051 223.6685 0005899 326.8582  33.1896 14.38673018419640
ORBCOMM FM30            
1 25980U 99065A   25315.75952808  .00001796  00000+0  63924-3 0  9992
2 25980  45.0302 111.0375 0005754  35.4061 324.7169 14.37654202355681
ORBCOMM FM31            
1 25981U 99065B   25315.46161909  .00001788  00000+0  63748-3 0  9990
2 25981  45.0211 105.9063 0003555  68.3010 291.8217 14.37580854355198
ORBCOMM FM32            
1 25982U 99065C   25315.74454118  .00001555  00000+0  57121-3 0  9999
2 25982  45.0140 122.1332 0006083  57.5373 302.6063 14.36637022355819
