<?xml version="1.0" encoding="UTF-8"?>
<ndm xmlns:xsi="http://www.w3.org/2001/XMLSchema-instance" xsi:noNamespaceSchemaLocation="https://sanaregistry.org/r/ndmxml_unqualified/ndmxml-2.0.0-master-2.0.xsd">
<omm id="CCSDS_OMM_VERS" version="2.0">
<header><CREATION_DATE/><ORIGINATOR/></header><body><segment><metadata><OBJECT_NAME>ORBCOMM FM24</OBJECT_NAME><OBJECT_ID>1998-053D</OBJECT_ID><CENTER_NAME>EARTH</CENTER_NAME><REF_FRAME>TEME</REF_FRAME><TIME_SYSTEM>UTC</TIME_SYSTEM><MEAN_ELEMENT_THEORY>SGP4</MEAN_ELEMENT_THEORY></metadata><data><meanElements><EPOCH>2025-11-12T02:49:55.970688</EPOCH><MEAN_MOTION>14.38529697</MEAN_MOTION><ECCENTRICITY>.00040745</ECCENTRICITY><INCLINATION>45.0075</INCLINATION><RA_OF_ASC_NODE>287.4906</RA_OF_ASC_NODE><ARG_OF_PERICENTER>275.5111</ARG_OF_PERICENTER><MEAN_ANOMALY>84.5273</MEAN_ANOMALY></meanElements><tleParameters><EPHEMERIS_TYPE>0</EPHEMERIS_TYPE><CLASSIFICATION_TYPE>U</CLASSIFICATION_TYPE><NORAD_CAT_ID>25478</NORAD_CAT_ID><ELEMENT_SET_NO>999</ELEMENT_SET_NO><REV_AT_EPOCH>41874</REV_AT_EPOCH><BSTAR>.69748669E-3</BSTAR><MEAN_MOTION_DOT>.201E-4</MEAN_MOTION_DOT><MEAN_MOTION_DDOT>0</MEAN_MOTION_DDOT></tleParameters></data></segment></body></omm>
<omm id="CCSDS_OMM_VERS" version="2.0">
<header><CREATION_DATE/><ORIGINATOR/></header><body><segment><metadata><OBJECT_NAME>ORBCOMM FM25</OBJECT_NAME><OBJECT_ID>1998-053E</OBJECT_ID><CENTER_NAME>EARTH</CENTER_NAME><REF_FRAME>TEME</REF_FRAME><TIME_SYSTEM>UTC</TIME_SYSTEM><MEAN_ELEMENT_THEORY>SGP4</MEAN_ELEMENT_THEORY></metadata><data><meanElements><EPOCH>2025-11-12T07:13:03.249120</EPOCH><MEAN_MOTION>14.38507903</MEAN_MOTION><ECCENTRICITY>.00064314</ECCENTRICITY><INCLINATION>45.0063</INCLINATION><RA_OF_ASC_NODE>284.9170</RA_OF_ASC_NODE><ARG_OF_PERICENTER>278.2486</ARG_OF_PERICENTER><MEAN_ANOMALY>81.7633</MEAN_ANOMALY></meanElements><tleParameters><EPHEMERIS_TYPE>0</EPHEMERIS_TYPE><CLASSIFICATION_TYPE>U</CLASSIFICATION_TYPE><NORAD_CAT_ID>25479</NORAD_CAT_ID><ELEMENT_SET_NO>999</ELEMENT_SET_NO><REV_AT_EPOCH>41906</REV_AT_EPOCH><BSTAR>.12468244E-2</BSTAR><MEAN_MOTION_DOT>.3706E-4</MEAN_MOTION_DOT><MEAN_MOTION_DDOT>0</MEAN_MOTION_DDOT></tleParameters></data></segment></body></omm>
<omm id="CCSDS_OMM_VERS" version="2.0">
<header><CREATION_DATE/><ORIGINATOR/></header><body><segment><metadata><OBJECT_NAME>ORBCOMM FM26</OBJECT_NAME><OBJECT_ID>1998-053F</OBJECT_ID><CENTER_NAME>EARTH</CENTER_NAME><REF_FRAME>TEME</REF_FRAME><TIME_SYSTEM>UTC</TIME_SYSTEM><MEAN_ELEMENT_THEORY>SGP4</MEAN_ELEMENT_THEORY></metadata><data><meanElements><EPOCH>2025-11-12T06:33:02.093760</EPOCH><MEAN_MOTION>14.37496611</MEAN_MOTION><ECCENTRICITY>.00083124</ECCENTRICITY><INCLINATION>45.0070</INCLINATION><RA_OF_ASC_NODE>282.6033</RA_OF_ASC_NODE><ARG_OF_PERICENTER>289.0968</ARG_OF_PERICENTER><MEAN_ANOMALY>70.8979</MEAN_ANOMALY></meanElements><tleParameters><EPHEMERIS_TYPE>0</EPHEMERIS_TYPE><CLASSIFICATION_TYPE>U</CLASSIFICATION_TYPE><NORAD_CAT_ID>25480</NORAD_CAT_ID><ELEMENT_SET_NO>999</ELEMENT_SET_NO><REV_AT_EPOCH>41895</REV_AT_EPOCH><BSTAR>.84729359E-3</BSTAR><MEAN_MOTION_DOT>.242E-4</MEAN_MOTION_DOT><MEAN_MOTION_DDOT>0</MEAN_MOTION_DDOT></tleParameters></data></segment></body></omm>
<omm id="CCSDS_OMM_VERS" version="2.0">
<header><CREATION_DATE/><ORIGINATOR/></header><body><segment><metadata><OBJECT_NAME>ORBCOMM FM27</OBJECT_NAME><OBJECT_ID>1998-053G</OBJECT_ID><CENTER_NAME>EARTH</CENTER_NAME><REF_FRAME>TEME</REF_FRAME><TIME_SYSTEM>UTC</TIME_SYSTEM><MEAN_ELEMENT_THEORY>SGP4</MEAN_ELEMENT_THEORY></metadata><data><meanElements><EPOCH>2025-11-12T06:50:30.319296</EPOCH><MEAN_MOTION>14.38537083</MEAN_MOTION><ECCENTRICITY>.00028538</ECCENTRICITY><INCLINATION>45.0049</INCLINATION><RA_OF_ASC_NODE>285.1371</RA_OF_ASC_NODE><ARG_OF_PERICENTER>291.6835</ARG_OF_PERICENTER><MEAN_ANOMALY>68.3710</MEAN_ANOMALY></meanElements><tleParameters><EPHEMERIS_TYPE>0</EPHEMERIS_TYPE><CLASSIFICATION_TYPE>U</CLASSIFICATION_TYPE><NORAD_CAT_ID>25481</NORAD_CAT_ID><ELEMENT_SET_NO>999</ELEMENT_SET_NO><REV_AT_EPOCH>41899</REV_AT_EPOCH><BSTAR>.10996962E-2</BSTAR><MEAN_MOTION_DOT>.3253E-4</MEAN_MOTION_DOT><MEAN_MOTION_DDOT>0</MEAN_MOTION_DDOT></tleParameters></data></segment></body></omm>
<omm id="CCSDS_OMM_VERS" version="2.0">
<header><CREATION_DATE/><ORIGINATOR/></header><body><segment><metadata><OBJECT_NAME>ORBCOMM FM28</OBJECT_NAME><OBJECT_ID>1998-053H</OBJECT_ID><CENTER_NAME>EARTH</CENTER_NAME><REF_FRAME>TEME</REF_FRAME><TIME_SYSTEM>UTC</TIME_SYSTEM><MEAN_ELEMENT_THEORY>SGP4</MEAN_ELEMENT_THEORY></metadata><data><meanElements><EPOCH>2025-11-12T00:39:45.751104</EPOCH><MEAN_MOTION>14.38673018</MEAN_MOTION><ECCENTRICITY>.00058995</ECCENTRICITY><INCLINATION>45.0051</INCLINATION><RA_OF_ASC_NODE>223.6685</RA_OF_ASC_NODE><ARG_OF_PERICENTER>326.8582</ARG_OF_PERICENTER><MEAN_ANOMALY>33.1896</MEAN_ANOMALY></meanElements><tleParameters><EPHEMERIS_TYPE>0</EPHEMERIS_TYPE><CLASSIFICATION_TYPE>U</CLASSIFICATION_TYPE><NORAD_CAT_ID>25482</NORAD_CAT_ID><ELEMENT_SET_NO>999</ELEMENT_SET_NO><REV_AT_EPOCH>41964</REV_AT_EPOCH><BSTAR>.58984737E-3</BSTAR><MEAN_MOTION_DOT>.1683E-4</MEAN_MOTION_DOT><MEAN_MOTION_DDOT>0</MEAN_MOTION_DDOT></tleParameters></data></segment></body></omm>
<omm id="CCSDS_OMM_VERS" version="2.0">
<header><CREATION_DATE/><ORIGINATOR/></header><body><segment><metadata><OBJECT_NAME>ORBCOMM FM30</OBJECT_NAME><OBJECT_ID>1999-065A</OBJECT_ID><CENTER_NAME>EARTH</CENTER_NAME><REF_FRAME>TEME</REF_FRAME><TIME_SYSTEM>UTC</TIME_SYSTEM><MEAN_ELEMENT_THEORY>SGP4</MEAN_ELEMENT_THEORY></metadata><data><meanElements><EPOCH>2025-11-11T18:13:43.226112</EPOCH><MEAN_MOTION>14.37654202</MEAN_MOTION><ECCENTRICITY>.00057547</ECCENTRICITY><INCLINATION>45.0302</INCLINATION><RA_OF_ASC_NODE>111.0375</RA_OF_ASC_NODE><ARG_OF_PERICENTER>35.4061</ARG_OF_PERICENTER><MEAN_ANOMALY>324.7169</MEAN_ANOMALY></meanElements><tleParameters><EPHEMERIS_TYPE>0</EPHEMERIS_TYPE><CLASSIFICATION_TYPE>U</CLASSIFICATION_TYPE><NORAD_CAT_ID>25980</NORAD_CAT_ID><ELEMENT_SET_NO>999</ELEMENT_SET_NO><REV_AT_EPOCH>35568</REV_AT_EPOCH><BSTAR>.63923576E-3</BSTAR><MEAN_MOTION_DOT>.1796E-4</MEAN_MOTION_DOT><MEAN_MOTION_DDOT>0</MEAN_MOTION_DDOT></tleParameters></data></segment></body></omm>
<omm id="CCSDS_OMM_VERS" version="2.0">
<header><CREATION_DATE/><ORIGINATOR/></header><body><segment><metadata><OBJECT_NAME>ORBCOMM FM31</OBJECT_NAME><OBJECT_ID>1999-065B</OBJECT_ID><CENTER_NAME>EARTH</CENTER_NAME><REF_FRAME>TEME</REF_FRAME><TIME_SYSTEM>UTC</TIME_SYSTEM><MEAN_ELEMENT_THEORY>SGP4</MEAN_ELEMENT_THEORY></metadata><data><meanElements><EPOCH>2025-11-11T11:04:43.889376</EPOCH><MEAN_MOTION>14.37580854</MEAN_MOTION><ECCENTRICITY>.00035555</ECCENTRICITY><INCLINATION>45.0211</INCLINATION><RA_OF_ASC_NODE>105.9063</RA_OF_ASC_NODE><ARG_OF_PERICENTER>68.3010</ARG_OF_PERICENTER><MEAN_ANOMALY>291.8217</MEAN_ANOMALY></meanElements><tleParameters><EPHEMERIS_TYPE>0</EPHEMERIS_TYPE><CLASSIFICATION_TYPE>U</CLASSIFICATION_TYPE><NORAD_CAT_ID>25981</NORAD_CAT_ID><ELEMENT_SET_NO>999</ELEMENT_SET_NO><REV_AT_EPOCH>35519</REV_AT_EPOCH><BSTAR>.63747857E-3</BSTAR><MEAN_MOTION_DOT>.1788E-4</MEAN_MOTION_DOT><MEAN_MOTION_DDOT>0</MEAN_MOTION_DDOT></tleParameters></data></segment></body></omm>
<omm id="CCSDS_OMM_VERS" version="2.0">
<header><CREATION_DATE/><ORIGINATOR/></header><body><segment><metadata><OBJECT_NAME>ORBCOMM FM32</OBJECT_NAME><OBJECT_ID>1999-065C</OBJECT_ID><CENTER_NAME>EARTH</CENTER_NAME><REF_FRAME>TEME</REF_FRAME><TIME_SYSTEM>UTC</TIME_SYSTEM><MEAN_ELEMENT_THEORY>SGP4</MEAN_ELEMENT_THEORY></metadata><data><meanElements><EPOCH>2025-11-11T17:52:08.357952</EPOCH><MEAN_MOTION>14.36637022</MEAN_MOTION><ECCENTRICITY>.00060836</ECCENTRICITY><INCLINATION>45.0140</INCLINATION><RA_OF_ASC_NODE>122.1332</RA_OF_ASC_NODE><ARG_OF_PERICENTER>57.5373</ARG_OF_PERICENTER><MEAN_ANOMALY>302.6063</MEAN_ANOMALY></meanElements><tleParameters><EPHEMERIS_TYPE>0</EPHEMERIS_TYPE><CLASSIFICATION_TYPE>U</CLASSIFICATION_TYPE><NORAD_CAT_ID>25982</NORAD_CAT_ID><ELEMENT_SET_NO>999</ELEMENT_SET_NO><REV_AT_EPOCH>35581</REV_AT_EPOCH><BSTAR>.57120745E-3</BSTAR><MEAN_MOTION_DOT>.1555E-4</MEAN_MOTION_DOT><MEAN_MOTION_DDOT>0</MEAN_MOTION_DDOT></tleParameters></data></segment></body></omm>

</ndm>
